ONEWEB-0035             
1 45143U 20008N   26091.34427624  .00000539  00000+0  15092-2 0  9992
2 45143  87.8805  51.5700 0001992  79.9933 280.1419 13.10371678297879
ONEWEB-0036             
1 45144U 20008P   26091.35386387  .00000162  00000+0  43181-3 0  9997
2 45144  87.8819  51.5475 0001644  85.4435 274.6880 13.09813581298308
ONEWEB-0038             
1 45145U 20008Q   26091.33802835 -.00000428  00000+0 -12424-2 0  9999
2 45145  87.8917  36.3422 0003302 101.0660 259.0839 13.11417793300256
ONEWEB-0039             
1 45146U 20008R   26091.39323188 -.00000065  00000+0 -22115-3 0  9991
2 45146  87.8822  51.5481 0001672  97.1253 263.0064 13.10376200298108
ONEWEB-0040             
1 45147U 20008S   26091.38658383 -.00000363  00000+0 -10774-2 0  9997
2 45147  87.8815  51.5636 0001949  84.1144 276.0206 13.10375161297808
ONEWEB-0043             
1 45149U 20008U   26091.38824555 -.00000277  00000+0 -82876-3 0  9992
2 45149  87.8824  51.5471 0001603  97.5563 262.5746 13.10376125298123
ONEWEB-0044             
1 45150U 20008V   26091.41648432  .00000658  00000+0  18488-2 0  9994
2 45150  87.8823  51.5384 0001874  87.3694 272.7648 13.10371154298423
ONEWEB-0045             
1 45151U 20008W   26091.33280662 -.00000481  00000+0 -13941-2 0  9998
2 45151  87.8913  36.3298 0001841  83.2653 276.8684 13.11417353300335
ONEWEB-0047             
1 45152U 20008X   26091.40983896  .00000668  00000+0  18779-2 0  9995
2 45152  87.8818  51.5409 0002076  81.1326 279.0036 13.10374684298147
ONEWEB-0048             
1 45153U 20008Y   26091.40485846  .00000406  00000+0  11262-2 0  9998
2 45153  87.8814  51.5680 0001981  81.3465 278.7887 13.10375297297752
ONEWEB-0049             
1 45154U 20008Z   26091.40804471  .00000594  00000+0  16652-2 0  9994
2 45154  87.8814  51.5553 0001481  75.3012 284.8280 13.10374772297974
ONEWEB-0051             
1 45155U 20008AA  26091.33109784 -.00000407  00000+0 -11844-2 0  9995
2 45155  87.8909  36.3423 0001864  79.9333 280.2005 13.11417404301015
ONEWEB-0052             
1 45156U 20008AB  26091.34767927  .00000558  00000+0  15988-2 0  9994
2 45156  87.8816  51.5490 0001429  78.5305 281.5982 13.08821473297874
ONEWEB-0053             
1 45157U 20008AC  26091.38491616 -.00000534  00000+0 -15671-2 0  9993
2 45157  87.8816  51.5692 0001488  91.9480 268.1818 13.10375299297857
ONEWEB-0054             
1 45158U 20008AD  26091.34343277  .00000609  00000+0  17070-2 0  9995
2 45158  87.8818  51.5537 0001838  79.8527 280.2808 13.10372582297962
ONEWEB-0056             
1 45159U 20008AE  26091.40070226  .00000335  00000+0  92225-3 0  9996
2 45159  87.8821  51.5420 0001794  76.2297 283.9030 13.10376493298125
ONEWEB-0057             
1 45160U 20008AF  26091.40831491  .00000590  00000+0  16546-2 0  9991
2 45160  87.8817  51.5494 0001493  91.8443 268.2855 13.10377444298291
