[{"OBJECT_NAME":"ONEWEB-0035","OBJECT_ID":"2020-008N","EPOCH":"2026-04-01T08:15:45.467136","MEAN_MOTION":13.10371678,"ECCENTRICITY":0.0001992,"INCLINATION":87.8805,"RA_OF_ASC_NODE":51.57,"ARG_OF_PERICENTER":79.9933,"MEAN_ANOMALY":280.1419,"EPHEMERIS_TYPE":0,"CLASSIFICATION_TYPE":"U","NORAD_CAT_ID":45143,"ELEMENT_SET_NO":999,"REV_AT_EPOCH":29787,"BSTAR":0.0015092,"MEAN_MOTION_DOT":5.39e-6,"MEAN_MOTION_DDOT":0},{"OBJECT_NAME":"ONEWEB-0036","OBJECT_ID":"2020-008P","EPOCH":"2026-04-01T08:29:33.838368","MEAN_MOTION":13.09813581,"ECCENTRICITY":0.0001644,"INCLINATION":87.8819,"RA_OF_ASC_NODE":51.5475,"ARG_OF_PERICENTER":85.4435,"MEAN_ANOMALY":274.688,"EPHEMERIS_TYPE":0,"CLASSIFICATION_TYPE":"U","NORAD_CAT_ID":45144,"ELEMENT_SET_NO":999,"REV_AT_EPOCH":29830,"BSTAR":0.00043181,"MEAN_MOTION_DOT":1.62e-6,"MEAN_MOTION_DDOT":0},{"OBJECT_NAME":"ONEWEB-0038","OBJECT_ID":"2020-008Q","EPOCH":"2026-04-01T08:06:45.649440","MEAN_MOTION":13.11417793,"ECCENTRICITY":0.0003302,"INCLINATION":87.8917,"RA_OF_ASC_NODE":36.3422,"ARG_OF_PERICENTER":101.066,"MEAN_ANOMALY":259.0839,"EPHEMERIS_TYPE":0,"CLASSIFICATION_TYPE":"U","NORAD_CAT_ID":45145,"ELEMENT_SET_NO":999,"REV_AT_EPOCH":30025,"BSTAR":-0.0012424,"MEAN_MOTION_DOT":-4.28e-6,"MEAN_MOTION_DDOT":0},{"OBJECT_NAME":"ONEWEB-0039","OBJECT_ID":"2020-008R","EPOCH":"2026-04-01T09:26:15.234432","MEAN_MOTION":13.103762,"ECCENTRICITY":0.0001672,"INCLINATION":87.8822,"RA_OF_ASC_NODE":51.5481,"ARG_OF_PERICENTER":97.1253,"MEAN_ANOMALY":263.0064,"EPHEMERIS_TYPE":0,"CLASSIFICATION_TYPE":"U","NORAD_CAT_ID":45146,"ELEMENT_SET_NO":999,"REV_AT_EPOCH":29810,"BSTAR":-0.00022115,"MEAN_MOTION_DOT":-6.5e-7,"MEAN_MOTION_DDOT":0},{"OBJECT_NAME":"ONEWEB-0040","OBJECT_ID":"2020-008S","EPOCH":"2026-04-01T09:16:40.842912","MEAN_MOTION":13.10375161,"ECCENTRICITY":0.0001949,"INCLINATION":87.8815,"RA_OF_ASC_NODE":51.5636,"ARG_OF_PERICENTER":84.1144,"MEAN_ANOMALY":276.0206,"EPHEMERIS_TYPE":0,"CLASSIFICATION_TYPE":"U","NORAD_CAT_ID":45147,"ELEMENT_SET_NO":999,"REV_AT_EPOCH":29780,"BSTAR":-0.0010774,"MEAN_MOTION_DOT":-3.63e-6,"MEAN_MOTION_DDOT":0},{"OBJECT_NAME":"ONEWEB-0043","OBJECT_ID":"2020-008U","EPOCH":"2026-04-01T09:19:04.415520","MEAN_MOTION":13.10376125,"ECCENTRICITY":0.0001603,"INCLINATION":87.8824,"RA_OF_ASC_NODE":51.5471,"ARG_OF_PERICENTER":97.5563,"MEAN_ANOMALY":262.5746,"EPHEMERIS_TYPE":0,"CLASSIFICATION_TYPE":"U","NORAD_CAT_ID":45149,"ELEMENT_SET_NO":999,"REV_AT_EPOCH":29812,"BSTAR":-0.00082876,"MEAN_MOTION_DOT":-2.77e-6,"MEAN_MOTION_DDOT":0},{"OBJECT_NAME":"ONEWEB-0044","OBJECT_ID":"2020-008V","EPOCH":"2026-04-01T09:59:44.245248","MEAN_MOTION":13.10371154,"ECCENTRICITY":0.0001874,"INCLINATION":87.8823,"RA_OF_ASC_NODE":51.5384,"ARG_OF_PERICENTER":87.3694,"MEAN_ANOMALY":272.7648,"EPHEMERIS_TYPE":0,"CLASSIFICATION_TYPE":"U","NORAD_CAT_ID":45150,"ELEMENT_SET_NO":999,"REV_AT_EPOCH":29842,"BSTAR":0.0018488,"MEAN_MOTION_DOT":6.58e-6,"MEAN_MOTION_DDOT":0},{"OBJECT_NAME":"ONEWEB-0045","OBJECT_ID":"2020-008W","EPOCH":"2026-04-01T07:59:14.491968","MEAN_MOTION":13.11417353,"ECCENTRICITY":0.0001841,"INCLINATION":87.8913,"RA_OF_ASC_NODE":36.3298,"ARG_OF_PERICENTER":83.2653,"MEAN_ANOMALY":276.8684,"EPHEMERIS_TYPE":0,"CLASSIFICATION_TYPE":"U","NORAD_CAT_ID":45151,"ELEMENT_SET_NO":999,"REV_AT_EPOCH":30033,"BSTAR":-0.0013941,"MEAN_MOTION_DOT":-4.81e-6,"MEAN_MOTION_DDOT":0},{"OBJECT_NAME":"ONEWEB-0047","OBJECT_ID":"2020-008X","EPOCH":"2026-04-01T09:50:10.086144","MEAN_MOTION":13.10374684,"ECCENTRICITY":0.0002076,"INCLINATION":87.8818,"RA_OF_ASC_NODE":51.5409,"ARG_OF_PERICENTER":81.1326,"MEAN_ANOMALY":279.0036,"EPHEMERIS_TYPE":0,"CLASSIFICATION_TYPE":"U","NORAD_CAT_ID":45152,"ELEMENT_SET_NO":999,"REV_AT_EPOCH":29814,"BSTAR":0.0018779,"MEAN_MOTION_DOT":6.68e-6,"MEAN_MOTION_DDOT":0},{"OBJECT_NAME":"ONEWEB-0048","OBJECT_ID":"2020-008Y","EPOCH":"2026-04-01T09:42:59.770944","MEAN_MOTION":13.10375297,"ECCENTRICITY":0.0001981,"INCLINATION":87.8814,"RA_OF_ASC_NODE":51.568,"ARG_OF_PERICENTER":81.3465,"MEAN_ANOMALY":278.7887,"EPHEMERIS_TYPE":0,"CLASSIFICATION_TYPE":"U","NORAD_CAT_ID":45153,"ELEMENT_SET_NO":999,"REV_AT_EPOCH":29775,"BSTAR":0.0011262,"MEAN_MOTION_DOT":4.06e-6,"MEAN_MOTION_DDOT":0},{"OBJECT_NAME":"ONEWEB-0049","OBJECT_ID":"2020-008Z","EPOCH":"2026-04-01T09:47:35.062944","MEAN_MOTION":13.10374772,"ECCENTRICITY":0.0001481,"INCLINATION":87.8814,"RA_OF_ASC_NODE":51.5553,"ARG_OF_PERICENTER":75.3012,"MEAN_ANOMALY":284.828,"EPHEMERIS_TYPE":0,"CLASSIFICATION_TYPE":"U","NORAD_CAT_ID":45154,"ELEMENT_SET_NO":999,"REV_AT_EPOCH":29797,"BSTAR":0.0016652,"MEAN_MOTION_DOT":5.94e-6,"MEAN_MOTION_DDOT":0},{"OBJECT_NAME":"ONEWEB-0051","OBJECT_ID":"2020-008AA","EPOCH":"2026-04-01T07:56:46.853376","MEAN_MOTION":13.11417404,"ECCENTRICITY":0.0001864,"INCLINATION":87.8909,"RA_OF_ASC_NODE":36.3423,"ARG_OF_PERICENTER":79.9333,"MEAN_ANOMALY":280.2005,"EPHEMERIS_TYPE":0,"CLASSIFICATION_TYPE":"U","NORAD_CAT_ID":45155,"ELEMENT_SET_NO":999,"REV_AT_EPOCH":30101,"BSTAR":-0.0011844,"MEAN_MOTION_DOT":-4.07e-6,"MEAN_MOTION_DDOT":0},{"OBJECT_NAME":"ONEWEB-0052","OBJECT_ID":"2020-008AB","EPOCH":"2026-04-01T08:20:39.488928","MEAN_MOTION":13.08821473,"ECCENTRICITY":0.0001429,"INCLINATION":87.8816,"RA_OF_ASC_NODE":51.549,"ARG_OF_PERICENTER":78.5305,"MEAN_ANOMALY":281.5982,"EPHEMERIS_TYPE":0,"CLASSIFICATION_TYPE":"U","NORAD_CAT_ID":45156,"ELEMENT_SET_NO":999,"REV_AT_EPOCH":29787,"BSTAR":0.0015988,"MEAN_MOTION_DOT":5.58e-6,"MEAN_MOTION_DDOT":0},{"OBJECT_NAME":"ONEWEB-0053","OBJECT_ID":"2020-008AC","EPOCH":"2026-04-01T09:14:16.756224","MEAN_MOTION":13.10375299,"ECCENTRICITY":0.0001488,"INCLINATION":87.8816,"RA_OF_ASC_NODE":51.5692,"ARG_OF_PERICENTER":91.948,"MEAN_ANOMALY":268.1818,"EPHEMERIS_TYPE":0,"CLASSIFICATION_TYPE":"U","NORAD_CAT_ID":45157,"ELEMENT_SET_NO":999,"REV_AT_EPOCH":29785,"BSTAR":-0.0015671,"MEAN_MOTION_DOT":-5.34e-6,"MEAN_MOTION_DDOT":0},{"OBJECT_NAME":"ONEWEB-0054","OBJECT_ID":"2020-008AD","EPOCH":"2026-04-01T08:14:32.591328","MEAN_MOTION":13.10372582,"ECCENTRICITY":0.0001838,"INCLINATION":87.8818,"RA_OF_ASC_NODE":51.5537,"ARG_OF_PERICENTER":79.8527,"MEAN_ANOMALY":280.2808,"EPHEMERIS_TYPE":0,"CLASSIFICATION_TYPE":"U","NORAD_CAT_ID":45158,"ELEMENT_SET_NO":999,"REV_AT_EPOCH":29796,"BSTAR":0.001707,"MEAN_MOTION_DOT":6.09e-6,"MEAN_MOTION_DDOT":0},{"OBJECT_NAME":"ONEWEB-0056","OBJECT_ID":"2020-008AE","EPOCH":"2026-04-01T09:37:00.675264","MEAN_MOTION":13.10376493,"ECCENTRICITY":0.0001794,"INCLINATION":87.8821,"RA_OF_ASC_NODE":51.542,"ARG_OF_PERICENTER":76.2297,"MEAN_ANOMALY":283.903,"EPHEMERIS_TYPE":0,"CLASSIFICATION_TYPE":"U","NORAD_CAT_ID":45159,"ELEMENT_SET_NO":999,"REV_AT_EPOCH":29812,"BSTAR":0.00092225,"MEAN_MOTION_DOT":3.35e-6,"MEAN_MOTION_DDOT":0},{"OBJECT_NAME":"ONEWEB-0057","OBJECT_ID":"2020-008AF","EPOCH":"2026-04-01T09:47:58.408224","MEAN_MOTION":13.10377444,"ECCENTRICITY":0.0001493,"INCLINATION":87.8817,"RA_OF_ASC_NODE":51.5494,"ARG_OF_PERICENTER":91.8443,"MEAN_ANOMALY":268.2855,"EPHEMERIS_TYPE":0,"CLASSIFICATION_TYPE":"U","NORAD_CAT_ID":45160,"ELEMENT_SET_NO":999,"REV_AT_EPOCH":29829,"BSTAR":0.0016546,"MEAN_MOTION_DOT":5.9e-6,"MEAN_MOTION_DDOT":0}]
